{"type": "FeatureCollection", "features": [ {"type": "Feature", "properties": {"norad_id": 41335, "name": "SENTINEL-3A", "group": "resource", "lat": -23.9573720652563, "lon": 56.24050579820425, "alt_km": 808.4185656102081, "timestamp": "2025-12-13T08:49:15.350849+00:00", "meta": {"OBJECT_NAME": "SENTINEL-3A", "OBJECT_ID": "2016-011A", "EPOCH": "2025-12-13T00:31:07.394304", "MEAN_MOTION": 14.26730937, "ECCENTRICITY": 9.523e-05, "INCLINATION": 98.6315, "RA_OF_ASC_NODE": 52.0294, "ARG_OF_PERICENTER": 91.1064, "MEAN_ANOMALY": 269.0226, "EPHEMERIS_TYPE": 0, "CLASSIFICATION_TYPE": "U", "NORAD_CAT_ID": 41335, "ELEMENT_SET_NO": 999, "REV_AT_EPOCH": 51151, "BSTAR": 0.00012957783, "MEAN_MOTION_DOT": 2.7e-06, "MEAN_MOTION_DDOT": 0}, "tle": {"line1": "1 41335U 16011A   25347.02161336  .00000270  00000+0  12958-3 0  9994", "line2": "2 41335  98.6315  52.0294 0000952  91.1064 269.0226 14.26730937511511"}}, "geometry": {"type": "Point", "coordinates": [56.24050579820425, -23.9573720652563]}}, {"type": "Feature", "properties": {"norad_id": 41556, "name": "ZIYUAN 3-2 (ZY 3-2)", "group": "resource", "lat": -57.83007105342275, "lon": 73.45606324180076, "alt_km": 503.43288022865454, "timestamp": "2025-12-13T08:49:15.350860+00:00", "meta": {"OBJECT_NAME": "ZIYUAN 3-2 (ZY 3-2)", "OBJECT_ID": "2016-033A", "EPOCH": "2025-12-12T23:36:27.778176", "MEAN_MOTION": 15.21508001, "ECCENTRICITY": 0.00124978, "INCLINATION": 97.4042, "RA_OF_ASC_NODE": 61.1468, "ARG_OF_PERICENTER": 248.0735, "MEAN_ANOMALY": 111.9173, "EPHEMERIS_TYPE": 0, "CLASSIFICATION_TYPE": "U", "NORAD_CAT_ID": 41556, "ELEMENT_SET_NO": 999, "REV_AT_EPOCH": 52967, "BSTAR": 0.00046084695, "MEAN_MOTION_DOT": 0.00010329, "MEAN_MOTION_DDOT": 0}, "tle": {"line1": "1 41556U 16033A   25346.98365484  .00010329  00000+0  46085-3 0  9991", "line2": "2 41556  97.4042  61.1468 0012497 248.0735 111.9173 15.21508001529672"}}, "geometry": {"type": "Point", "coordinates": [73.45606324180076, -57.83007105342275]}}, {"type": "Feature", "properties": {"norad_id": 41599, "name": "CARTOSAT-2C", "group": "resource", "lat": -59.51381826343653, "lon": -148.2784367912933, "alt_km": 522.5818845617277, "timestamp": "2025-12-13T08:49:15.350871+00:00", "meta": {"OBJECT_NAME": "CARTOSAT-2C", "OBJECT_ID": "2016-040A", "EPOCH": "2025-12-13T01:26:39.071616", "MEAN_MOTION": 15.19299031, "ECCENTRICITY": 0.00108573, "INCLINATION": 97.4766, "RA_OF_ASC_NODE": 44.307, "ARG_OF_PERICENTER": 63.9487, "MEAN_ANOMALY": 296.2864, "EPHEMERIS_TYPE": 0, "CLASSIFICATION_TYPE": "U", "NORAD_CAT_ID": 41599, "ELEMENT_SET_NO": 999, "REV_AT_EPOCH": 52545, "BSTAR": 0.00031631097, "MEAN_MOTION_DOT": 6.618e-05, "MEAN_MOTION_DDOT": 0}, "tle": {"line1": "1 41599U 16040A   25347.06017444  .00006618  00000+0  31631-3 0  9993", "line2": "2 41599  97.4766  44.3070 0010857  63.9487 296.2864 15.19299031525453"}}, "geometry": {"type": "Point", "coordinates": [-148.2784367912933, -59.51381826343653]}}, {"type": "Feature", "properties": {"norad_id": 41601, "name": "SKYSAT-C1", "group": "resource", "lat": -34.383313344943396, "lon": 29.156956244655696, "alt_km": 473.2793721404014, "timestamp": "2025-12-13T08:49:15.350882+00:00", "meta": {"OBJECT_NAME": "SKYSAT-C1", "OBJECT_ID": "2016-040C", "EPOCH": "2025-12-12T20:26:09.515328", "MEAN_MOTION": 15.32593045, "ECCENTRICITY": 0.00023392, "INCLINATION": 96.983, "RA_OF_ASC_NODE": 23.8587, "ARG_OF_PERICENTER": 15.0651, "MEAN_ANOMALY": 345.0662, "EPHEMERIS_TYPE": 0, "CLASSIFICATION_TYPE": "U", "NORAD_CAT_ID": 41601, "ELEMENT_SET_NO": 999, "REV_AT_EPOCH": 52929, "BSTAR": 0.00043499396, "MEAN_MOTION_DOT": 0.00013629, "MEAN_MOTION_DDOT": 0}, "tle": {"line1": "1 41601U 16040C   25346.85149902  .00013629  00000+0  43499-3 0  9993", "line2": "2 41601  96.9830  23.8587 0002339  15.0651 345.0662 15.32593045529297"}}, "geometry": {"type": "Point", "coordinates": [29.156956244655696, -34.383313344943396]}}, {"type": "Feature", "properties": {"norad_id": 41603, "name": "LAPAN-A3", "group": "resource", "lat": 71.63156307274473, "lon": -172.9077790815092, "alt_km": 468.94470144998013, "timestamp": "2025-12-13T08:49:15.350893+00:00", "meta": {"OBJECT_NAME": "LAPAN-A3", "OBJECT_ID": "2016-040E", "EPOCH": "2025-12-13T00:30:56.055168", "MEAN_MOTION": 15.31554848, "ECCENTRICITY": 0.00095966, "INCLINATION": 97.1433, "RA_OF_ASC_NODE": 344.5675, "ARG_OF_PERICENTER": 332.9582, "MEAN_ANOMALY": 27.1159, "EPHEMERIS_TYPE": 0, "CLASSIFICATION_TYPE": "U", "NORAD_CAT_ID": 41603, "ELEMENT_SET_NO": 999, "REV_AT_EPOCH": 52630, "BSTAR": 0.00020607993, "MEAN_MOTION_DOT": 6.213e-05, "MEAN_MOTION_DDOT": 0}, "tle": {"line1": "1 41603U 16040E   25347.02148212  .00006213  00000+0  20608-3 0  9996", "line2": "2 41603  97.1433 344.5675 0009596 332.9582  27.1159 15.31554848526303"}}, "geometry": {"type": "Point", "coordinates": [-172.9077790815092, 71.63156307274473]}}, {"type": "Feature", "properties": {"norad_id": 41604, "name": "BIROS", "group": "resource", "lat": 60.582169891646714, "lon": 6.11192176897979, "alt_km": 296.32575319933494, "timestamp": "2025-12-13T08:49:15.350904+00:00", "meta": {"OBJECT_NAME": "BIROS", "OBJECT_ID": "2016-040F", "EPOCH": "2025-12-12T15:56:49.185024", "MEAN_MOTION": 15.89700477, "ECCENTRICITY": 0.00033958, "INCLINATION": 97.069, "RA_OF_ASC_NODE": 18.094, "ARG_OF_PERICENTER": 150.0961, "MEAN_ANOMALY": 210.0507, "EPHEMERIS_TYPE": 0, "CLASSIFICATION_TYPE": "U", "NORAD_CAT_ID": 41604, "ELEMENT_SET_NO": 999, "REV_AT_EPOCH": 52871, "BSTAR": 0.00075384417, "MEAN_MOTION_DOT": 0.00220233, "MEAN_MOTION_DDOT": 1.9447493e-05}, "tle": {"line1": "1 41604U 16040F   25346.66445816  .00220233  19447-4  75384-3 0  9997", "line2": "2 41604  97.0690  18.0940 0003395 150.0961 210.0507 15.89700477528718"}}, "geometry": {"type": "Point", "coordinates": [6.11192176897979, 60.582169891646714]}}, {"type": "Feature", "properties": {"norad_id": 41727, "name": "GAOFEN-3", "group": "resource", "lat": 41.92830802838996, "lon": -14.686354604346267, "alt_km": 746.8015280805803, "timestamp": "2025-12-13T08:49:15.350915+00:00", "meta": {"OBJECT_NAME": "GAOFEN-3", "OBJECT_ID": "2016-049A", "EPOCH": "2025-12-13T00:17:57.301728", "MEAN_MOTION": 14.42214033, "ECCENTRICITY": 0.00014195, "INCLINATION": 98.4044, "RA_OF_ASC_NODE": 352.5944, "ARG_OF_PERICENTER": 60.3083, "MEAN_ANOMALY": 299.8248, "EPHEMERIS_TYPE": 0, "CLASSIFICATION_TYPE": "U", "NORAD_CAT_ID": 41727, "ELEMENT_SET_NO": 999, "REV_AT_EPOCH": 49181, "BSTAR": 8.5786751e-05, "MEAN_MOTION_DOT": 2.39e-06, "MEAN_MOTION_DDOT": 0}, "tle": {"line1": "1 41727U 16049A   25347.01246877  .00000239  00000+0  85787-4 0  9999", "line2": "2 41727  98.4044 352.5944 0001419  60.3083 299.8248 14.42214033491818"}}, "geometry": {"type": "Point", "coordinates": [-14.686354604346267, 41.92830802838996]}}, {"type": "Feature", "properties": {"norad_id": 41771, "name": "SKYSAT-C4", "group": "resource", "lat": -75.77763585234742, "lon": 41.24054395679787, "alt_km": 447.6768609784185, "timestamp": "2025-12-13T08:49:15.350925+00:00", "meta": {"OBJECT_NAME": "SKYSAT-C4", "OBJECT_ID": "2016-058B", "EPOCH": "2025-12-12T23:48:49.840128", "MEAN_MOTION": 15.42258103, "ECCENTRICITY": 0.00015484, "INCLINATION": 96.9382, "RA_OF_ASC_NODE": 12.1675, "ARG_OF_PERICENTER": 133.444, "MEAN_ANOMALY": 226.6938, "EPHEMERIS_TYPE": 0, "CLASSIFICATION_TYPE": "U", "NORAD_CAT_ID": 41771, "ELEMENT_SET_NO": 999, "REV_AT_EPOCH": 51671, "BSTAR": 0.00049169266, "MEAN_MOTION_DOT": 0.00021089, "MEAN_MOTION_DDOT": 0}, "tle": {"line1": "1 41771U 16058B   25346.99224352  .00021089  00000+0  49169-3 0  9997", "line2": "2 41771  96.9382  12.1675 0001548 133.4440 226.6938 15.42258103516715"}}, "geometry": {"type": "Point", "coordinates": [41.24054395679787, -75.77763585234742]}}, {"type": "Feature", "properties": {"norad_id": 41772, "name": "SKYSAT-C5", "group": "resource", "lat": 1.973118145889398, "lon": -148.66286030970753, "alt_km": 463.7786858074023, "timestamp": "2025-12-13T08:49:15.350937+00:00", "meta": {"OBJECT_NAME": "SKYSAT-C5", "OBJECT_ID": "2016-058C", "EPOCH": "2025-12-12T21:05:41.510688", "MEAN_MOTION": 15.34770392, "ECCENTRICITY": 0.00010518, "INCLINATION": 97.0765, "RA_OF_ASC_NODE": 30.6231, "ARG_OF_PERICENTER": 206.7689, "MEAN_ANOMALY": 153.3501, "EPHEMERIS_TYPE": 0, "CLASSIFICATION_TYPE": "U", "NORAD_CAT_ID": 41772, "ELEMENT_SET_NO": 999, "REV_AT_EPOCH": 51518, "BSTAR": 0.00042060315, "MEAN_MOTION_DOT": 0.00014112, "MEAN_MOTION_DDOT": 0}, "tle": {"line1": "1 41772U 16058C   25346.87895267  .00014112  00000+0  42060-3 0  9996", "line2": "2 41772  97.0765  30.6231 0001051 206.7689 153.3501 15.34770392515186"}}, "geometry": {"type": "Point", "coordinates": [-148.66286030970753, 1.973118145889398]}}, {"type": "Feature", "properties": {"norad_id": 41773, "name": "SKYSAT-C2", "group": "resource", "lat": -15.964514962007119, "lon": -170.15744098827795, "alt_km": 461.8251356043602, "timestamp": "2025-12-13T08:49:15.350948+00:00", "meta": {"OBJECT_NAME": "SKYSAT-C2", "OBJECT_ID": "2016-058D", "EPOCH": "2025-12-13T00:09:36.634464", "MEAN_MOTION": 15.37279313, "ECCENTRICITY": 0.00042142, "INCLINATION": 97.0368, "RA_OF_ASC_NODE": 11.522, "ARG_OF_PERICENTER": 33.7062, "MEAN_ANOMALY": 326.4451, "EPHEMERIS_TYPE": 0, "CLASSIFICATION_TYPE": "U", "NORAD_CAT_ID": 41773, "ELEMENT_SET_NO": 999, "REV_AT_EPOCH": 51640, "BSTAR": 0.00045670265, "MEAN_MOTION_DOT": 0.00016623, "MEAN_MOTION_DDOT": 0}, "tle": {"line1": "1 41773U 16058D   25347.00667401  .00016623  00000+0  45670-3 0  9999", "line2": "2 41773  97.0368  11.5220 0004214  33.7062 326.4451 15.37279313516402"}}, "geometry": {"type": "Point", "coordinates": [-170.15744098827795, -15.964514962007119]}}]}